{
    "links": {
        "self": "http://www.neowsapp.com/rest/v1/neo/3589136?api_key=iIulBulltgU6a56xZRHN4H3l9WmuAYTsLGpBGhQ2"
    },
    "id": "3589136",
    "neo_reference_id": "3589136",
    "name": "(2011 WC44)",
    "designation": "2011 WC44",
    "nasa_jpl_url": "http://ssd.jpl.nasa.gov/sbdb.cgi?sstr=3589136",
    "absolute_magnitude_h": 20.5,
    "estimated_diameter": {
        "kilometers": {
            "estimated_diameter_min": 0.2111324448,
            "estimated_diameter_max": 0.4721064988
        },
        "meters": {
            "estimated_diameter_min": 211.1324447897,
            "estimated_diameter_max": 472.1064988055
        },
        "miles": {
            "estimated_diameter_min": 0.1311915784,
            "estimated_diameter_max": 0.2933532873
        },
        "feet": {
            "estimated_diameter_min": 692.6917701639,
            "estimated_diameter_max": 1548.9058855411
        }
    },
    "is_potentially_hazardous_asteroid": false,
    "close_approach_data": [
        {
            "close_approach_date": "2011-11-07",
            "close_approach_date_full": "2011-Nov-07 19:20",
            "epoch_date_close_approach": 1320693600000,
            "relative_velocity": {
                "kilometers_per_second": "18.0250515802",
                "kilometers_per_hour": "64890.1856886656",
                "miles_per_hour": "40320.2378797156"
            },
            "miss_distance": {
                "astronomical": "0.1658873402",
                "lunar": "64.5301753378",
                "kilometers": "24816392.753885374",
                "miles": "15420191.4134872012"
            },
            "orbiting_body": "Earth"
        }
    ],
    "orbital_data": {
        "orbit_id": "18",
        "orbit_determination_date": "2017-04-06 08:51:54",
        "first_observation_date": "2011-11-26",
        "last_observation_date": "2011-12-27",
        "data_arc_in_days": 31,
        "observations_used": 120,
        "orbit_uncertainty": "7",
        "minimum_orbit_intersection": ".0984787",
        "jupiter_tisserand_invariant": "3.065",
        "epoch_osculation": "2459000.5",
        "eccentricity": ".6987024101099174",
        "semi_major_axis": "2.416310840140075",
        "inclination": "20.71034456772338",
        "ascending_node_longitude": "245.0413826638261",
        "orbital_period": "1371.916344778332",
        "perihelion_distance": ".7280286325594852",
        "perihelion_argument": "92.14293373722241",
        "aphelion_distance": "4.104593047720665",
        "perihelion_time": "2458566.531760046140",
        "mean_anomaly": "113.876160873812",
        "mean_motion": ".262406670326657",
        "equinox": "J2000",
        "orbit_class": {
            "orbit_class_type": "APO",
            "orbit_class_description": "Near-Earth asteroid orbits which cross the Earth’s orbit similar to that of 1862 Apollo",
            "orbit_class_range": "a (semi-major axis) > 1.0 AU; q (perihelion) < 1.017 AU"
        }
    },
    "is_sentry_object": false
}